KUIPER-00297            
1 68596U 26072Z   26099.50754172  .00018132  00000+0  51708-3 0  9996
2 68596  51.8622 149.1220 0010385 136.1757 224.0055 15.36072717   812
